VSP RF A1               
1 59135U 24043AP  26066.03073316  .00000577  00000+0  25199-4 0  9997
2 59135  97.5247 201.5379 0009431 234.6315 125.4042 15.26179596111403
STARLINK-34060          
1 63815U 25092M   26068.33547328  .00020446  00000+0  75064-3 0  9998
2 63815  43.0030 174.2772 0000975 270.5155  89.5585 15.27572284 48501
